{
"type": "FeatureCollection",
"name": "ga_s2bm_ard_3-2-1_55GCP_2024-11-12_final",
"features": [
{ "type": "Feature", "properties": { "title": "ga_s2bm_ard_3-2-1_55GCP_2024-11-12_final", "gsd": 10.0, "created": "2024-11-25T10:22:06.135496Z", "gqa:abs_x": 0.18, "gqa:abs_y": 0.31, "gqa:cep90": 0.45, "fmask:snow": 0.18614404683939492, "gqa:abs_xy": 0.35, "gqa:mean_x": 0.01, "gqa:mean_y": 0.11, "proj:shape": [ 10980, 10980 ], "platform": "sentinel-2b", "fmask:clear": 55.348079646321004, "fmask:cloud": 0.028098779635727142, "fmask:water": 44.416586023821623, "gqa:mean_xy": 0.11, "gqa:stddev_x": 1.58, "gqa:stddev_y": 3.83, "odc:producer": "ga.gov.au", "instruments": [ "msi" ], "gqa:stddev_xy": 4.14, "eo:cloud_cover": 0.028098779635727142, "view:sun_azimuth": 50.534818066166899, "proj:transform": [ 10.0, 0.0, 300000.0, 0.0, -10.0, 5400040.0, 0.0, 0.0, 1.0 ], "odc:file_format": "GeoTIFF", "odc:region_code": "55GCP", "sat:orbit_state": "descending", "constellation": "sentinel-2", "view:sun_elevation": 32.943361582678399, "s2cloudless:clear": 99.983815581235618, "s2cloudless:cloud": 0.016184418764370389, "fmask:cloud_shadow": 0.021091503382254982, "odc:product_family": "ard", "sat:relative_orbit": 73, "odc:dataset_version": "3.2.1", "dea:dataset_maturity": "final", "dea:product_maturity": "stable", "gqa:iterative_mean_x": 0.03, "gqa:iterative_mean_y": 0.17, "gqa:iterative_mean_xy": 0.18, "sentinel:datastrip_id": "S2B_OPER_MSI_L1C_DS_2BPS_20241112T013027_S20241112T001633_N05.11", "sentinel:product_name": "S2B_MSIL1C_20241112T001109_N0511_R073_T55GCP_20241112T013027", "gqa:iterative_stddev_x": 0.18, "gqa:iterative_stddev_y": 0.23, "gqa:iterative_stddev_xy": 0.29, "gqa:abs_iterative_mean_x": 0.13, "gqa:abs_iterative_mean_y": 0.21, "gqa:abs_iterative_mean_xy": 0.25, "sentinel:sentinel_tile_id": "S2B_OPER_MSI_L1C_TL_2BPS_20241112T013027_A040139_T55GCP_N05.11", "sentinel:datatake_start_datetime": "2024-11-12T01:30:27Z", "cubedash:region_code": "55GCP", "datetime": "2024-11-12T00:18:30.027107Z", "proj:code": "EPSG:32755" }, "geometry": { "type": "Polygon", "coordinates": [ [ [ 144.602837323266812, -41.526312330240522 ], [ 145.918517198061778, -41.546218423049694 ], [ 145.901617845291725, -42.534964221633224 ], [ 144.56541465995835, -42.514360227406783 ], [ 144.602837323266812, -41.526312330240522 ] ] ] } }
]
}
