{
"type": "FeatureCollection",
"name": "study_areas",
"crs": { "type": "name", "properties": { "name": "urn:ogc:def:crs:EPSG::7855" } },
"features": [
{ "type": "Feature", "properties": { "fid": 1, "name": "Harman River", "region": "Tarkine South", "status": "complete", "acquisition_date": "2025-04-30" }, "geometry": { "type": "Polygon", "coordinates": [ [ [ 363113.205914147896692, 5382249.651305882260203 ], [ 364885.802469833055511, 5382822.025795486755669 ], [ 361799.067525577265769, 5392381.389166636392474 ], [ 360026.47096989210695, 5391809.014677031897008 ], [ 363113.205914147896692, 5382249.651305882260203 ] ] ] } },
{ "type": "Feature", "properties": { "fid": 2, "name": "Stanley River", "region": "Tarkine South", "status": "complete", "acquisition_date": "2025-04-30" }, "geometry": { "type": "Polygon", "coordinates": [ [ [ 359894.084955236408859, 5389888.15012947563082 ], [ 358153.496398868621327, 5389976.601716506294906 ], [ 357700.493490964407101, 5381062.214717175811529 ], [ 359441.082047332194634, 5380973.763130145147443 ], [ 359894.084955236408859, 5389888.15012947563082 ] ] ] } },
{ "type": "Feature", "properties": { "fid": 3, "name": "Wilson River", "region": "Tarkine South", "status": "complete", "acquisition_date": "2025-04-30" }, "geometry": { "type": "Polygon", "coordinates": [ [ [ 366301.504154459398706, 5389790.802397465333343 ], [ 363782.561934515135363, 5389806.177615969441831 ], [ 363736.826250477752183, 5382313.240494385361671 ], [ 366255.768470422015525, 5382297.865275881253183 ], [ 366301.504154459398706, 5389790.802397465333343 ] ] ] } },
{ "type": "Feature", "properties": { "fid": 4, "name": "Piney Creek", "region": "Tarkine south", "status": "not planned", "acquisition_date": null }, "geometry": { "type": "Polygon", "coordinates": [ [ [ 353103.467601917625871, 5363680.309035272337496 ], [ 353094.467819914920256, 5370772.137253563851118 ], [ 355962.398351507959887, 5370748.137834888882935 ], [ 355965.398278842214495, 5363584.311360575258732 ], [ 353103.467601917625871, 5363680.309035272337496 ] ] ] } },
{ "type": "Feature", "properties": { "fid": 5, "name": "Mount Read", "region": "Tarkine south", "status": "not planned", "acquisition_date": null }, "geometry": { "type": "Polygon", "coordinates": [ [ [ 375614.922318522643764, 5363996.801369038410485 ], [ 375716.919847888930235, 5368592.690045190043747 ], [ 380234.810413348255679, 5368574.690481184050441 ], [ 380102.813610638957471, 5363966.802095695398748 ], [ 375614.922318522643764, 5363996.801369038410485 ] ] ] } },
{ "type": "Feature", "properties": { "fid": 6, "name": "Teepookana Plateau", "region": "Mid west", "status": "not planned", "acquisition_date": null }, "geometry": { "type": "Polygon", "coordinates": [ [ [ 368512.731007728376426, 5323802.429399130865932 ], [ 368518.730862396943849, 5330174.591642403975129 ], [ 372409.542396109784022, 5330162.591933066025376 ], [ 372403.542541441216599, 5323790.429689792916179 ], [ 368512.731007728376426, 5323802.429399130865932 ] ] ] } },
{ "type": "Feature", "properties": { "fid": 7, "name": "Frenchmans Cap", "region": "Mid west", "status": "not planned", "acquisition_date": null }, "geometry": { "type": "Polygon", "coordinates": [ [ [ 400364.322826518968213, 5315381.478953002952039 ], [ 401307.889409755065572, 5322700.700243140570819 ], [ 410492.077507124049589, 5321645.327227027155459 ], [ 409688.096981531009078, 5314193.507728619500995 ], [ 400364.322826518968213, 5315381.478953002952039 ] ] ] } },
{ "type": "Feature", "properties": { "fid": 8, "name": "Gordon River", "region": "Mid west", "status": "not planned", "acquisition_date": null }, "geometry": { "type": "Polygon", "coordinates": [ [ [ 389325.596539906575345, 5295645.801056418567896 ], [ 389325.596539906575345, 5300857.761800430715084 ], [ 392265.676959605654702, 5300857.761800430715084 ], [ 392265.676959605654702, 5295645.801056418567896 ], [ 389325.596539906575345, 5295645.801056418567896 ] ] ] } },
{ "type": "Feature", "properties": { "fid": 9, "name": "Kinghorn Creek", "region": "Mid west", "status": "not planned", "acquisition_date": null }, "geometry": { "type": "Polygon", "coordinates": [ [ [ 385374.546379097620957, 5286300.320184484124184 ], [ 385386.546088434872217, 5289530.118153508752584 ], [ 391846.918309453583788, 5289530.118153508752584 ], [ 391834.918600116332527, 5286300.320184484124184 ], [ 385374.546379097620957, 5286300.320184484124184 ] ] ] } },
{ "type": "Feature", "properties": { "fid": 10, "name": "King Billy Range", "region": "Mid west", "status": "not planned", "acquisition_date": null }, "geometry": { "type": "Polygon", "coordinates": [ [ [ 390294.316504910239018, 5277452.116691741161048 ], [ 390300.316359578864649, 5282398.821338254027069 ], [ 397842.183674015337601, 5282392.821483585052192 ], [ 397836.183819346711971, 5277446.116837072186172 ], [ 390294.316504910239018, 5277452.116691741161048 ] ] ] } },
{ "type": "Feature", "properties": { "fid": 11, "name": "Denison River", "region": "Mid west", "status": "not planned", "acquisition_date": null }, "geometry": { "type": "Polygon", "coordinates": [ [ [ 412807.757785444962792, 5275366.709022723138332 ], [ 414025.728283171833027, 5281299.185505378060043 ], [ 418499.606088903616183, 5280819.197131889872253 ], [ 417281.635591176745947, 5274886.720649234950542 ], [ 412807.757785444962792, 5275366.709022723138332 ] ] ] } },
{ "type": "Feature", "properties": { "fid": 12, "name": "Lake Judd", "region": "Southwest", "status": "not planned", "acquisition_date": null }, "geometry": { "type": "Polygon", "coordinates": [ [ [ 449518.13219906471204, 5239585.314924514852464 ], [ 456297.967974588333163, 5237821.357651945203543 ], [ 458544.913547976349946, 5246285.652625676244497 ], [ 451813.076609801733866, 5248085.609026256948709 ], [ 449518.13219906471204, 5239585.314924514852464 ] ] ] } },
{ "type": "Feature", "properties": { "fid": 13, "name": "Davey River", "region": "Southwest", "status": "complete", "acquisition_date": "2023-02-17" }, "geometry": { "type": "Polygon", "coordinates": [ [ [ 416604.413953080656938, 5226265.187865517102182 ], [ 422126.708761836169288, 5227513.833036621101201 ], [ 418833.62395679904148, 5242077.926619396544993 ], [ 413311.329148043529131, 5240829.281448292545974 ], [ 416604.413953080656938, 5226265.187865517102182 ] ] ] } },
{ "type": "Feature", "properties": { "fid": 14, "name": "Old River East", "region": "Southwest", "status": "not planned", "acquisition_date": null }, "geometry": { "type": "Polygon", "coordinates": [ [ [ 440886.349239818751812, 5207306.135920561850071 ], [ 441763.585065218852833, 5205695.143083952367306 ], [ 447015.06829867803026, 5208587.000769608654082 ], [ 446011.453808172082063, 5210174.084129036404192 ], [ 440886.349239818751812, 5207306.135920561850071 ] ] ] } },
{ "type": "Feature", "properties": { "fid": 15, "name": "Old River West", "region": "Southwest", "status": "not planned", "acquisition_date": null }, "geometry": { "type": "Polygon", "coordinates": [ [ [ 436727.245361314562615, 5202924.58557475078851 ], [ 438527.559390757407527, 5201895.330767614766955 ], [ 441274.411393964022864, 5206225.894392844289541 ], [ 439460.43480613140855, 5207091.198499302379787 ], [ 436727.245361314562615, 5202924.58557475078851 ] ] ] } },
{ "type": "Feature", "properties": { "fid": 16, "name": "Solly River", "region": "Southwest", "status": "not planned", "acquisition_date": null }, "geometry": { "type": "Polygon", "coordinates": [ [ [ 443276.642210833495483, 5204935.323342512361705 ], [ 446274.141124845482409, 5208053.920598899945617 ], [ 451587.781500804412644, 5203547.270582863129675 ], [ 448539.047992830688599, 5200237.397509020753205 ], [ 443276.642210833495483, 5204935.323342512361705 ] ] ] } },
{ "type": "Feature", "properties": { "fid": 17, "name": "Ray River", "region": "Southwest", "status": "not planned", "acquisition_date": null }, "geometry": { "type": "Polygon", "coordinates": [ [ [ 435448.473001182370353, 5195604.880239971913397 ], [ 438136.407892717281356, 5196708.853498995304108 ], [ 441976.314880624297075, 5189473.028768657706678 ], [ 439126.383913040917832, 5187998.564483848400414 ], [ 435448.473001182370353, 5195604.880239971913397 ] ] ] } }
]
}
