{
"type": "FeatureCollection",
"name": "ga_s2bm_ard_3-2-1_55GCP_2025-01-11_final",
"features": [
{ "type": "Feature", "properties": { "title": "ga_s2bm_ard_3-2-1_55GCP_2025-01-11_final", "gsd": 10.0, "created": "2025-01-24T09:43:16.751040Z", "gqa:abs_x": 0.22, "gqa:abs_y": 0.39, "gqa:cep90": 0.48, "fmask:snow": 0.068928105746165411, "gqa:abs_xy": 0.45, "gqa:mean_x": -0.02, "gqa:mean_y": 0.18, "proj:shape": [ 10980, 10980 ], "platform": "sentinel-2b", "fmask:clear": 36.662725073904859, "fmask:cloud": 29.395167899243862, "fmask:water": 27.606620415990658, "gqa:mean_xy": 0.18, "gqa:stddev_x": 0.73, "gqa:stddev_y": 0.98, "odc:producer": "ga.gov.au", "instruments": [ "msi" ], "gqa:stddev_xy": 1.22, "eo:cloud_cover": 29.395167899243862, "view:sun_azimuth": 63.001054962138397, "proj:transform": [ 10.0, 0.0, 300000.0, 0.0, -10.0, 5400040.0, 0.0, 0.0, 1.0 ], "odc:file_format": "GeoTIFF", "odc:region_code": "55GCP", "sat:orbit_state": "descending", "constellation": "sentinel-2", "view:sun_elevation": 33.586328242614897, "s2cloudless:clear": 66.264265878348112, "s2cloudless:cloud": 33.73573412165188, "fmask:cloud_shadow": 6.2665585051144488, "odc:product_family": "ard", "sat:relative_orbit": 73, "odc:dataset_version": "3.2.1", "dea:dataset_maturity": "final", "dea:product_maturity": "stable", "gqa:iterative_mean_x": -0.02, "gqa:iterative_mean_y": 0.22, "gqa:iterative_mean_xy": 0.22, "sentinel:datastrip_id": "S2B_OPER_MSI_L1C_DS_2BPS_20250111T013326_S20250111T001547_N05.11", "sentinel:product_name": "S2B_MSIL1C_20250111T001109_N0511_R073_T55GCP_20250111T013326", "gqa:iterative_stddev_x": 0.16, "gqa:iterative_stddev_y": 0.19, "gqa:iterative_stddev_xy": 0.25, "gqa:abs_iterative_mean_x": 0.11, "gqa:abs_iterative_mean_y": 0.25, "gqa:abs_iterative_mean_xy": 0.27, "sentinel:sentinel_tile_id": "S2B_OPER_MSI_L1C_TL_2BPS_20250111T013326_A040997_T55GCP_N05.11", "sentinel:datatake_start_datetime": "2025-01-11T01:33:26Z", "cubedash:region_code": "55GCP", "datetime": "2025-01-11T00:18:34.708014Z", "proj:code": "EPSG:32755" }, "geometry": { "type": "Polygon", "coordinates": [ [ [ 144.602837323266812, -41.526312330240522 ], [ 145.918517198061778, -41.546218423049694 ], [ 145.901617845291725, -42.534964221633224 ], [ 144.56541465995835, -42.514360227406783 ], [ 144.602837323266812, -41.526312330240522 ] ] ] } }
]
}
