{
"type": "FeatureCollection",
"name": "ga_s2cm_ard_3-2-1_55GCP_2025-03-27_final",
"features": [
{ "type": "Feature", "properties": { "title": "ga_s2cm_ard_3-2-1_55GCP_2025-03-27_final", "gsd": 10.0, "created": "2025-04-10T06:01:51.771851Z", "gqa:abs_x": 0.16, "gqa:abs_y": 0.36, "gqa:cep90": 0.56, "fmask:snow": 0.14401744334018279, "gqa:abs_xy": 0.4, "gqa:mean_x": 0.01, "gqa:mean_y": 0.06, "proj:shape": [ 10980, 10980 ], "platform": "sentinel-2c", "fmask:clear": 53.524837459890229, "fmask:cloud": 2.2281313674517125, "fmask:water": 42.369774565106773, "gqa:mean_xy": 0.06, "gqa:stddev_x": 0.43, "gqa:stddev_y": 0.72, "odc:producer": "ga.gov.au", "instruments": [ "msi" ], "gqa:stddev_xy": 0.83, "eo:cloud_cover": 2.2281313674517125, "view:sun_azimuth": 40.677027519339298, "proj:transform": [ 10.0, 0.0, 300000.0, 0.0, -10.0, 5400040.0, 0.0, 0.0, 1.0 ], "odc:file_format": "GeoTIFF", "odc:region_code": "55GCP", "sat:orbit_state": "descending", "constellation": "sentinel-2", "view:sun_elevation": 52.9186517929774, "s2cloudless:clear": 97.340320702320156, "s2cloudless:cloud": 2.6596792976798351, "fmask:cloud_shadow": 1.7332391642111062, "odc:product_family": "ard", "sat:relative_orbit": 73, "odc:dataset_version": "3.2.1", "dea:dataset_maturity": "final", "dea:product_maturity": "stable", "gqa:iterative_mean_x": 0.0, "gqa:iterative_mean_y": 0.03, "gqa:iterative_mean_xy": 0.03, "sentinel:datastrip_id": "S2C_OPER_MSI_L1C_DS_2CPS_20250327T032309_S20250327T001131_N05.11", "sentinel:product_name": "S2C_MSIL1C_20250327T001131_N0511_R073_T55GCP_20250327T032309", "gqa:iterative_stddev_x": 0.14, "gqa:iterative_stddev_y": 0.33, "gqa:iterative_stddev_xy": 0.36, "gqa:abs_iterative_mean_x": 0.11, "gqa:abs_iterative_mean_y": 0.27, "gqa:abs_iterative_mean_xy": 0.29, "sentinel:sentinel_tile_id": "S2C_OPER_MSI_L1C_TL_2CPS_20250327T032309_A002903_T55GCP_N05.11", "sentinel:datatake_start_datetime": "2025-03-27T03:23:09Z", "cubedash:region_code": "55GCP", "datetime": "2025-03-27T00:18:56.032696Z", "proj:code": "EPSG:32755" }, "geometry": { "type": "Polygon", "coordinates": [ [ [ 144.602837323266812, -41.526312330240522 ], [ 145.918517198061778, -41.546218423049694 ], [ 145.901617845291725, -42.534964221633224 ], [ 144.56541465995835, -42.514360227406783 ], [ 144.602837323266812, -41.526312330240522 ] ] ] } }
]
}
